*******************************************************************************
Ephemeris / WWW_USER Mon Mar 26 21:58:51 2018 Pasadena, USA      / Horizons    
*******************************************************************************
Target body name: 136199 Eris (2003 UB313)        {source: JPL#59}
Center body name: Solar System Barycenter (0)     {source: DE431}
Center-site name: BODY CENTER
*******************************************************************************
Start time      : A.D. 2000-Jan-01 00:00:00.0000 TDB
Stop  time      : A.D. 2005-Jan-01 00:00:00.0000 TDB
Step-size       : 7200 minutes
*******************************************************************************
Center geodetic : 0.00000000,0.00000000,0.0000000 {E-lon(deg),Lat(deg),Alt(km)}
Center cylindric: 0.00000000,0.00000000,0.0000000 {E-lon(deg),Dxy(km),Dz(km)}
Center radii    : (undefined)                                                  
Small perturbers: Yes                             {source: SB431-N16}
Output units    : AU-D                                                         
Output type     : GEOMETRIC cartesian states
Output format   : 2 (position and velocity)
Reference frame : ICRF/J2000.0                                                 
Coordinate systm: Ecliptic and Mean Equinox of Reference Epoch                 
*******************************************************************************
Initial IAU76/J2000 heliocentric ecliptic osculating elements (au, days, deg.):
  EPOCH=  2455936.5 ! 2012-Jan-10.00 (TDB)         Residual RMS= .2495         
   EC= .4344606714175216   QR= 38.48659940403228   TP= 2545919.4421254303      
   OM= 36.06473954858459   W=  150.8940778730555   IN= 43.81785695462196       
  Equivalent ICRF heliocentric equatorial cartesian coordinates (au, au/d):
   X= 8.724248031513278E+01  Y= 4.086442322023402E+01  Z=-6.480603118127547E+00
  VX=-3.283210547726760E-04 VY= 4.899240089127559E-04 VZ= 1.197172800824818E-03
Asteroid physical parameters (km, seconds, rotational period in hours):        
   GM= n.a.                RAD= n.a.               ROTPER= 25.9                
   H= -1.1                 G= .150                 B-V= n.a.                   
                           ALBEDO= n.a.            STYP= n.a.                  
*******************************************************************************
JDTDB
   X     Y     Z
   VX    VY    VZ
*******************************************************************************
$$SOE
2452654.500000000 = A.D. 2003-Jan-15 00:00:00.0000 TDB 
   8.814812223177573E+01  3.183023497729893E+01 -2.512490682506575E+01
  -2.299327114998899E-04  9.569219658792995E-04  8.780449048741567E-04
2452659.500000000 = A.D. 2003-Jan-20 00:00:00.0000 TDB 
   8.814697221080912E+01  3.183501945805840E+01 -2.512051649867355E+01
  -2.300756752923112E-04  9.568703364529543E-04  8.780856509441218E-04
2452664.500000000 = A.D. 2003-Jan-25 00:00:00.0000 TDB 
   8.814582147502141E+01  3.183980368064887E+01 -2.511612596856688E+01
  -2.302186399268861E-04  9.568186982774401E-04  8.781263906673749E-04
2452669.500000000 = A.D. 2003-Jan-30 00:00:00.0000 TDB 
   8.814467002440844E+01  3.184458764502659E+01 -2.511173523477746E+01
  -2.303616054041264E-04  9.567670513523379E-04  8.781671240438294E-04
2452674.500000000 = A.D. 2003-Feb-04 00:00:00.0000 TDB 
   8.814351785896598E+01  3.184937135114781E+01 -2.510734429733702E+01
  -2.305045717245438E-04  9.567153956772314E-04  8.782078510733989E-04
2452679.500000000 = A.D. 2003-Feb-09 00:00:00.0000 TDB 
   8.814236497868980E+01  3.185415479896877E+01 -2.510295315627730E+01
  -2.306475388886493E-04  9.566637312517048E-04  8.782485717559957E-04
2452684.500000000 = A.D. 2003-Feb-14 00:00:00.0000 TDB 
   8.814121138357568E+01  3.185893798844574E+01 -2.509856181163003E+01
  -2.307905068969530E-04  9.566120580753452E-04  8.782892860915314E-04
2452689.500000000 = A.D. 2003-Feb-19 00:00:00.0000 TDB 
   8.814005707361942E+01  3.186372091953494E+01 -2.509417026342696E+01
  -2.309334757501052E-04  9.565603761477751E-04  8.783299940799722E-04
2452694.500000000 = A.D. 2003-Feb-24 00:00:00.0000 TDB 
   8.813890204881676E+01  3.186850359219263E+01 -2.508977851169982E+01
  -2.310764454482959E-04  9.565086854685069E-04  8.783706957211010E-04
2452699.500000000 = A.D. 2003-Mar-01 00:00:00.0000 TDB 
   8.813774630916353E+01  3.187328600637503E+01 -2.508538655648033E+01
  -2.312194159921685E-04  9.564569860371654E-04  8.784113910148811E-04
2452704.500000000 = A.D. 2003-Mar-06 00:00:00.0000 TDB 
   8.813658985465544E+01  3.187806816203841E+01 -2.508099439780025E+01
  -2.313623873822192E-04  9.564052778533421E-04  8.784520799612161E-04
2452709.500000000 = A.D. 2003-Mar-11 00:00:00.0000 TDB 
   8.813543268528827E+01  3.188285005913899E+01 -2.507660203569130E+01
  -2.315053596189423E-04  9.563535609166290E-04  8.784927625600088E-04
2452714.500000000 = A.D. 2003-Mar-16 00:00:00.0000 TDB 
   8.813427480105783E+01  3.188763169763299E+01 -2.507220947018523E+01
  -2.316483327028307E-04  9.563018352266204E-04  8.785334388111601E-04
2452719.500000000 = A.D. 2003-Mar-21 00:00:00.0000 TDB 
   8.813311620195985E+01  3.189241307747666E+01 -2.506781670131377E+01
  -2.317913066343752E-04  9.562501007829118E-04  8.785741087145705E-04
2452724.500000000 = A.D. 2003-Mar-26 00:00:00.0000 TDB 
   8.813195688799009E+01  3.189719419862623E+01 -2.506342372910866E+01
  -2.319342814140652E-04  9.561983575851003E-04  8.786147722701391E-04
2452729.500000000 = A.D. 2003-Mar-31 00:00:00.0000 TDB 
   8.813079685914428E+01  3.190197506103792E+01 -2.505903055360165E+01
  -2.320772570423355E-04  9.561466056328456E-04  8.786554294777332E-04
2452734.500000000 = A.D. 2003-Apr-05 00:00:00.0000 TDB 
   8.812963611541822E+01  3.190675566466797E+01 -2.505463717482446E+01
  -2.322202335197864E-04  9.560948449256151E-04  8.786960803373156E-04
2452739.500000000 = A.D. 2003-Apr-10 00:00:00.0000 TDB 
   8.812847465680767E+01  3.191153600947258E+01 -2.505024359280886E+01
  -2.323632108468550E-04  9.560430754630649E-04  8.787367248487530E-04
2452744.500000000 = A.D. 2003-Apr-15 00:00:00.0000 TDB 
   8.812731248330834E+01  3.191631609540802E+01 -2.504584980758656E+01
  -2.325061890240277E-04  9.559912972447941E-04  8.787773630119438E-04
2452749.500000000 = A.D. 2003-Apr-20 00:00:00.0000 TDB 
   8.812614959491600E+01  3.192109592243044E+01 -2.504145581918932E+01
  -2.326491680517898E-04  9.559395102704014E-04  8.788179948267827E-04
2452754.500000000 = A.D. 2003-Apr-25 00:00:00.0000 TDB 
   8.812498599162642E+01  3.192587549049612E+01 -2.503706162764887E+01
  -2.327921479306255E-04  9.558877145394877E-04  8.788586202931646E-04
2452759.500000000 = A.D. 2003-Apr-30 00:00:00.0000 TDB 
   8.812382167343529E+01  3.193065479956125E+01 -2.503266723299697E+01
  -2.329351286610175E-04  9.558359100516544E-04  8.788992394109825E-04
2452764.500000000 = A.D. 2003-May-05 00:00:00.0000 TDB 
   8.812265664033838E+01  3.193543384958204E+01 -2.502827263526535E+01
  -2.330781102434472E-04  9.557840968065041E-04  8.789398521801301E-04
2452769.500000000 = A.D. 2003-May-10 00:00:00.0000 TDB 
   8.812149089233144E+01  3.194021264051472E+01 -2.502387783448575E+01
  -2.332210926783947E-04  9.557322748036400E-04  8.789804586004986E-04
2452774.500000000 = A.D. 2003-May-15 00:00:00.0000 TDB 
   8.812032442941018E+01  3.194499117231548E+01 -2.501948283068992E+01
  -2.333640759663856E-04  9.556804440426559E-04  8.790210586719951E-04
2452779.500000000 = A.D. 2003-May-20 00:00:00.0000 TDB 
   8.811915725157034E+01  3.194976944494054E+01 -2.501508762390961E+01
  -2.335070601077873E-04  9.556286045231844E-04  8.790616523944717E-04
2452784.500000000 = A.D. 2003-May-25 00:00:00.0000 TDB 
   8.811798935880769E+01  3.195454745834611E+01 -2.501069221417656E+01
  -2.336500451031230E-04  9.555767562448198E-04  8.791022397678325E-04
2452789.500000000 = A.D. 2003-May-30 00:00:00.0000 TDB 
   8.811682075111788E+01  3.195932521248839E+01 -2.500629660152251E+01
  -2.337930309528635E-04  9.555248992071719E-04  8.791428207919649E-04
2452794.500000000 = A.D. 2003-Jun-04 00:00:00.0000 TDB 
   8.811565142849673E+01  3.196410270732359E+01 -2.500190078597922E+01
  -2.339360176574779E-04  9.554730334098502E-04  8.791833954667536E-04
2452799.500000000 = A.D. 2003-Jun-09 00:00:00.0000 TDB 
   8.811448139093989E+01  3.196887994280789E+01 -2.499750476757843E+01
  -2.340790052174335E-04  9.554211588524659E-04  8.792239637920833E-04
2452804.500000000 = A.D. 2003-Jun-14 00:00:00.0000 TDB 
   8.811331063844314E+01  3.197365691889750E+01 -2.499310854635188E+01
  -2.342219936331958E-04  9.553692755346314E-04  8.792645257678372E-04
2452809.500000000 = A.D. 2003-Jun-19 00:00:00.0000 TDB 
   8.811213917100214E+01  3.197843363554864E+01 -2.498871212233133E+01
  -2.343649829052288E-04  9.553173834559600E-04  8.793050813938970E-04
2452814.500000000 = A.D. 2003-Jun-24 00:00:00.0000 TDB 
   8.811096698861265E+01  3.198321009271746E+01 -2.498431549554852E+01
  -2.345079730339563E-04  9.552654826161396E-04  8.793456306701185E-04
2452819.500000000 = A.D. 2003-Jun-29 00:00:00.0000 TDB 
   8.810979409127036E+01  3.198798629036019E+01 -2.497991866603521E+01
  -2.346509640199246E-04  9.552135730146223E-04  8.793861735964374E-04
2452824.500000000 = A.D. 2003-Jul-04 00:00:00.0000 TDB 
   8.810862047897101E+01  3.199276222843301E+01 -2.497552163382315E+01
  -2.347939558635566E-04  9.551616546510934E-04  8.794267101727094E-04
2452829.500000000 = A.D. 2003-Jul-09 00:00:00.0000 TDB 
   8.810744615171028E+01  3.199753790689209E+01 -2.497112439894407E+01
  -2.349369485653127E-04  9.551097275251650E-04  8.794672403988137E-04
2452834.500000000 = A.D. 2003-Jul-14 00:00:00.0000 TDB 
   8.810627110948393E+01  3.200231332569366E+01 -2.496672696142974E+01
  -2.350799421256518E-04  9.550577916364497E-04  8.795077642746296E-04
